HORYU-2
1 38340U 12025D   23314.79593411  .00004837  00000-0  65064-3 0  9996
2 38340  98.1690  45.7555 0010988  31.3636 328.8228 14.79683755607766
RS-40
1 38735U 12041C   23314.93431323  .00000023  00000-0  96728-4 0  9996
2 38735  82.4727 306.5881 0017027 340.8973  19.1466 12.42597703511947
AENEAS
1 38760U          23265.85685185  .00000000  00000-0  15764-2 0    06
2 38760  64.6448 191.4103 0027263 114.7582 355.9422 15.68528680    04
CP5
1 38763U 12048F   23314.45996059 +.00015453 +00000+0 +88935-3 0    19
2 38763  64.6597 259.6228 0094610  98.8993 262.2852 15.08854942543584
METOP-B
1 38771U 12049A   23315.48917924  .00000279  00000-0  14720-3 0  9995
2 38771  98.6606  12.2674 0000868  91.5432 330.6827 14.21506160578477
AAUSAT3
1 39087U 13009B   23315.48227248  .00001377  00000-0  47714-3 0  9995
2 39087  98.3734 146.7392 0012019 173.0462 187.0894 14.37125705561083
STRAND-1
1 39090U 13009E   23314.77833216  .00000795  00000-0  28941-3 0  9992
2 39090  98.3821 144.1170 0008759 180.4409 179.6771 14.35769257560757
RS-43
1 39133U 13015D   23315.46232526  .00006691  00000-0  41603-3 0  9992
2 39133  64.8724  81.8319 0017937 225.6721 134.2932 15.10288951580304
BEESAT-3
1 39135U 13015F   23314.85213778  .00207874  00000-0  16914-2 0  9996
2 39135  64.8469 197.8027 0011276 244.4150 115.5837 15.69713361584707
BEESAT-2
1 39136U 13015G   23315.10984434  .00113945  00000-0  13696-2 0  9999
2 39136  64.8602 212.4229 0020352 255.7408 104.1479 15.60020690584894
TURKSAT-3U
1 39152U 13018C   23315.50680294  .00004617  00000-0  54623-3 0  9992
2 39152  97.8448  39.5395 0015389   4.1003 356.0335 14.85008202569735
CUBEBUG-1
1 39153U 13018D   23315.27156805  .00004837  00000-0  57072-3 0  9998
2 39153  98.0539  72.7672 0015792  30.2713 329.9410 14.85111906569697
ESTCUBE-1
1 39161U 13021C   23315.19217495  .00002885  00000-0  43525-3 0  9994
2 39161  97.8582  23.2363 0008531 209.9682 150.1040 14.75062736564831
CUSAT
1 39266U 13055B   23314.86254794  .00028722  00000-0  58321-3 0  9991
2 39266  80.9724  43.5982 0486253 106.1266 259.4021 14.73042643528775
DANDE
1 39267U 13055C   23315.50592536  .00011847  00000-0  30534-3 0  9999
2 39267  81.0006 130.3854 0608756 316.0163  39.4064 14.42392375523983
ESHAIL-1
1 39233U 13044A   23314.84111363  .00000164  00000-0  00000-0 0  9993
2 39233   0.0545   2.1827 0002000 222.7006 153.1747  1.00269908 37101
ZACUBE-1
1 39417U 13066B   23314.86164582  .00004088  00000-0  45685-3 0  9994
2 39417  97.7050 271.6569 0053746 162.5945 197.7129 14.86435432538975
UNISAT-5
1 39421U 13066F   23315.44773784  .00004585  00000-0  45089-3 0  9994
2 39421  97.5544 290.1768 0029845  42.5666 317.7859 14.92258689541447
TRITON-1
1 39427U 13066M   23315.45824401  .00004387  00000-0  64430-3 0  9995
2 39427  97.8377 235.8548 0107831  65.6848 295.5576 14.72055683534204
DELFI-N3XT
1 39428U 13066N   23314.72436263  .00007970  00000-0  10968-2 0  9997
2 39428  97.8344 234.5151 0109228  77.9660 283.3766 14.74434469533711
GOMX-1
1 39430U 13066Q   23315.45257992  .00003285  00000-0  56627-3 0  9999
2 39430  97.7580 197.9158 0142180 226.8123 132.1130 14.62704076531059
HUMSAT-D
1 39433U 13066T   23314.91813151  .00011914  00000-0  89692-3 0  9993
2 39433  97.4814 307.9761 0019777 317.1402  42.8281 15.02503344541764
VELOX-P2
1 39438U 13066Y   23315.41768712  .00004277  00000-0  52418-3 0  9996
2 39438  97.7604 264.0317 0063689 226.3116 133.2811 14.82228912537876
FIRSTMOVE
1 39439U 13066Z   23314.85130841  .00012602  00000-0  11837-2 0  9990
2 39439  97.6978 276.6559 0054179 147.4893 212.9682 14.92948616538082
CUBEBUG-2
1 39440U 13066AA  23314.81228045  .00005962  00000-0  74605-3 0  9996
2 39440  97.7883 258.9979 0071481 270.1418  89.1604 14.80838033535848
FUNCUBE-1
1 39444U 13066AE  23314.84344733  .00007349  00000-0  77652-3 0  9992
2 39444  97.6910 274.3450 0052346 146.3865 214.0691 14.88494757537449
UWE-3
1 39446U 13066AG  23315.41848176  .00005061  00000-0  60099-3 0  9994
2 39446  97.7536 265.6809 0062389 215.9889 143.7117 14.83492362536832
FIREBIRD-A
1 39463U 13072B   23315.08259544  .00592422  00000-0  33402-2 0  9997
2 39463 120.4192   7.2752 0044413 151.0317 209.3259 15.75802260228966
FIREBIRD-B
1 39464U 13072C   23314.41570540 +.00017861 +00000+0 +10719-2 0    14
2 39464 120.4776  63.2769 0217733  98.9659 263.6112 14.93436447532946
MCUBED-2
1 39469U 13072H   23313.39281034 +.00022887 +00000+0 +13544-2 0    15
2 39469 120.5032  60.8217 0216856  97.6748 264.8995 14.93841326532823
IPEX
1 39471U 13072K   23314.23726897 +.00013849 +00000+0 +93015-3 0    13
2 39471 120.4888  11.9308 0237317  83.9143 278.8900 14.87070927534371
RS-41
1 39492U 13078C   23315.44426427  .00003265  00000-0  33248-3 0  9992
2 39492  82.4154 106.1120 0018214 203.8466 156.1911 14.90334279535974
RS-46
1 39497U 13076E   23315.49361760  .00000022  00000-0  86189-4 0  9999
2 39497  82.4899  39.9868 0012815   5.2798 354.8414 12.43470958448104
RS-47
1 39765U 14028E   23315.46645213  .00000044  00000-0  11526-3 0  9996
2 39765  82.4499 172.5924 0232406  69.0443 293.5360 12.82864455443599
SPROUT
1 39770U 14029E   23315.33431937  .00039499  00000-0  23302-2 0  9995
2 39770  98.0002  87.9345 0005405 194.6726 165.4347 15.11417675514303
UNISAT-6
1 40012U 14033C   23315.04421727  .00003547  00000-0  48914-3 0  9997
2 40012  97.6815 122.0670 0053622 299.7473  59.8409 14.77812359505453
BUGSAT-1
1 40014U 14033E   23315.42880037  .00006142  00000-0  47820-3 0  9993
2 40014  98.1498 341.1522 0035253 141.4720 218.9029 15.01139582512807
AURORA
1 40017U 14033H   23315.46946195  .00005375  00000-0  43555-3 0  9996
2 40017  98.1481 323.3137 0019442 161.5965 198.5964 15.00016317512161
PACE
1 40022U 14033N   23314.85844631  .00005495  00000-0  51564-3 0  9998
2 40022  98.0126 263.0914 0012049 167.3481 192.8044 14.94355354510442
DUCHIFAT-1
1 40021U 14033M   23314.85275765  .00012473  00000-0  98000-3 0  9993
2 40021  98.0726 283.9269 0014291 116.5218 243.7472 15.00959179511160
NCBR1
1 40024U 14033Q   23315.43979275  .00009644  00000-0  81169-3 0  9992
2 40024  98.0462 274.6211 0011915 140.5351 219.6741 14.98406107510961
QB50P1
1 40025U 14033R   23315.40863575  .00007827  00000-0  70490-3 0  9991
2 40025  98.0134 265.0876 0011516 155.6894 204.4872 14.95835794510642
POPSATHIP-1
1 40028U 14033U   23315.45286913  .00006235  00000-0  57075-3 0  9990
2 40028  98.0253 266.7339 0012308 160.2022 199.9678 14.95278014510574
DTUSAT-2
1 40030U 14033W   23315.37527265  .00006576  00000-0  60782-3 0  9999
2 40030  97.9813 258.0516 0010974 154.4716 205.7048 14.94881176510485
QB50P2
1 40032U 14033Y   23314.81438054  .00007071  00000-0  65276-3 0  9990
2 40032  97.9815 257.4969 0010756 154.9206 205.2538 14.94905144509862
ANTELSAT
1 40034U 14033AA  23315.01838277  .00004435  00000-0  60036-3 0  9996
2 40034  97.6787 123.4704 0053530 296.6210  62.9523 14.78467555505470
PERSEUS-M2
1 40037U 14033AD  23314.79733492  .00003010  00000-0  32430-3 0  9991
2 40037  97.9126 240.2289 0013113 191.5738 168.5179 14.89143718509164
PERSEUS-M1
1 40039U 14033AF  23314.78348565  .00002968  00000-0  32233-3 0  9997
2 40039  97.8958 236.8618 0012964 191.0804 169.0129 14.88841070509028
POLYITAN
1 40042U 14033AJ  23314.83573908  .00010067  00000-0  87173-3 0  9990
2 40042  98.0264 266.8577 0013037 147.2749 212.9283 14.97276085509965
TIGRISAT
1 40043U 14033AK  23314.73357183  .00003357  00000-0  46780-3 0  9998
2 40043  97.6737 122.5276 0055803 298.3390  61.2199 14.77312289505048
AISAT
1 40054U 14034B   23314.54747690  .00007827  00000-0  91686-3 0  9997
2 40054  98.3559 153.7545 0011552 109.9178 250.3281 14.85266928505173
CANX-4
1 40055U 14034C   23315.45727182  .00002206  00000-0  31981-3 0  9991
2 40055  98.3935 136.2426 0013893 164.0782 196.0867 14.77092007504282
CANX-5
1 40056U 14034D   23314.98942245  .00001991  00000-0  28946-3 0  9995
2 40056  98.3939 135.7490 0013862 165.7403 194.4200 14.77095363504210
VELOX-1
1 40057U 14034E   23315.47019508  .00004985  00000-0  61459-3 0  9990
2 40057  98.3602 155.2620 0010342 123.6364 236.5837 14.83350738505255
METEOR-M2
1 40069U 14037A   23315.45371349  .00000214  00000-0  11815-3 0  9990
2 40069  98.4285 314.6246 0004587 275.8976  84.1678 14.20840547484567
DX-1
1 40071U 14037C   23315.45579614  .00002600  00000-0  32201-3 0  9991
2 40071  98.3428 213.0919 0009394 106.4201 253.8045 14.83629129505194
UKUBE-1
1 40074U 14037F   23315.27751096  .00006457  00000-0  67352-3 0  9999
2 40074  98.3369 227.5616 0005717  72.9768 287.2074 14.90116475506147
HODOYOSHI-1
1 40299U 14070B   23315.44239416  .00017299  00000-0  46189-3 0  9992
2 40299  97.1760  14.5176 0010972 107.4961 252.7484 15.38108284501409
CHUBUSAT-1
1 40300U 14070C   23315.10131393  .00019052  00000-0  50906-3 0  9994
2 40300  97.1192 356.5594 0015406 125.8584 234.4095 15.38005005500890
TSUBAME
1 40302U 14070E   23315.45683514  .00023718  00000-0  66986-3 0  9990
2 40302  97.1207 322.4383 0025157 187.7886 172.2972 15.36036277499526
GRIFEX
1 40379U 15003D   23315.46122919  .00096327  00000-0  11075-2 0  9993
2 40379  99.0848 289.7781 0058624 115.5281 245.2048 15.59553378486175
EXOCUBE
1 40380U 15003E   23315.46880167  .00039857  00000-0  80100-3 0  9992
2 40380  99.0934 276.5421 0079380 157.9487 202.5202 15.43117687485357
DEORBITSAIL
1 40719U 15032E   23315.11048456  .00006645  00000-0  81647-3 0  9995
2 40719  97.7117 180.8437 0015054 131.8255 228.4247 14.83276956449586
XW-2C
1 40906U 15049H   23315.45256295  .00018424  00000-0  61165-3 0  9991
2 40906  97.4921 323.5283 0010921  15.0684 345.0880 15.31221466450891
XW-2D
1 40907U 15049J   23315.49996311  .00023507  00000-0  70764-3 0  9999
2 40907  97.4890 324.6082 0009346   9.1699 350.9712 15.34316337451025
LILACSAT-2
1 40908U 15049K   23315.48471668  .00008935  00000-0  39344-3 0  9999
2 40908  97.5278 318.3701 0014717  43.0901 317.1484 15.21975025450184
